{"type": "FeatureCollection", "crs": {"type": "name", "properties": {"name": "urn:ogc:def:crs:EPSG::4674"}}, "features": [{"type": "Feature", "geometry": {"type": "Polygon", "coordinates": [[[-46.2477, -23.4056], [-46.2562, -23.4062], [-46.261, -23.3997], [-46.2747, -23.3885], [-46.2943, -23.3694], [-46.2917, -23.346], [-46.2945, -23.3335], [-46.2992, -23.3245], [-46.3054, -23.3215], [-46.3345, -23.332], [-46.3365, -23.3348], [-46.3399, -23.3351], [-46.3472, -23.348], [-46.3574, -23.3571], [-46.37, -23.3651], [-46.3709, -23.3842], [-46.3686, -23.3942], [-46.3776, -23.4015], [-46.3672, -23.4229], [-46.3668, -23.4301], [-46.3584, -23.4373], [-46.3545, -23.4227], [-46.349, -23.42], [-46.3223, -23.4255], [-46.3113, -23.4232], [-46.303, -23.4246], [-46.2846, -23.4353], [-46.2706, -23.4299], [-46.2604, -23.4265], [-46.2555, -23.4178], [-46.2498, -23.4153], [-46.2477, -23.4056]]]}, "properties": {"cod_ibge": "3503901", "nome": "Arujá"}}, {"type": "Feature", "geometry": {"type": "Polygon", "coordinates": [[[-46.8007, -23.4704], [-46.8064, -23.4759], [-46.8082, -23.4846], [-46.8149, -23.4856], [-46.8209, -23.4805], [-46.8353, -23.4846], [-46.8487, -23.4809], [-46.8616, -23.4829], [-46.8697, -23.4774], [-46.8776, -23.4801], [-46.8807, -23.4722], [-46.8884, -23.4747], [-46.8887, -23.4841], [-46.899, -23.4911], [-46.9126, -23.4913], [-46.9197, -23.4871], [-46.9366, -23.4878], [-46.9533, -23.4838], [-46.9645, -23.4987], [-46.9549, -23.5046], [-46.9455, -23.5048], [-46.9296, -23.5132], [-46.9152, -23.5125], [-46.9144, -23.5186], [-46.9032, -23.5195], [-46.8941, -23.5258], [-46.8946, -23.5385], [-46.8907, -23.5501], [-46.8864, -23.5532], [-46.8726, -23.5504], [-46.8606, -23.5448], [-46.8625, -23.5305], [-46.8544, -23.5166], [-46.847, -23.5162], [-46.835, -23.511], [-46.8282, -23.5172], [-46.8174, -23.5207], [-46.8085, -23.51], [-46.8118, -23.498], [-46.8069, -23.4931], [-46.7995, -23.4714], [-46.8007, -23.4704]]]}, "properties": {"cod_ibge": "3505708", "nome": "Barueri"}}, {"type": "Feature", "geometry": {"type": "Polygon", "coordinates": [[[-46.1009, -23.7184], [-46.0956, -23.7338], [-46.0774, -23.7326], [-46.0677, -23.729], [-46.0661, -23.7236], [-46.0541, -23.7163], [-46.0337, -23.7208], [-46.0261, -23.7158], [-46.0167, -23.7148], [-46.0082, -23.7086], [-45.992, -23.7055], [-45.9854, -23.6982], [-45.9765, -23.694], [-45.9505, -23.7023], [-45.9361, -23.7012], [-45.9198, -23.6884], [-45.9161, -23.6669], [-45.921, -23.6593], [-45.9333, -23.6523], [-45.9355, -23.6429], [-45.9284, -23.6375], [-45.9394, -23.6323], [-45.9474, -23.6357], [-45.9596, -23.634], [-45.934, -23.6135], [-45.9303, -23.6091], [-45.9293, -23.5985], [-45.9357, -23.5862], [-45.945, -23.5816], [-45.9652, -23.5808], [-45.9651, -23.5536], [-45.9698, -23.5389], [-45.9804, -23.5417], [-45.9853, -23.5252], [-45.9927, -23.5199], [-45.9975, -23.5191], [-46.0064, -23.5278], [-46.0212, -23.5312], [-46.0344, -23.5255], [-46.0409, -23.5381], [-46.0566, -23.5422], [-46.0715, -23.5372], [-46.0763, -23.5327], [-46.0718, -23.5247], [-46.077, -23.5147], [-46.0899, -23.5081], [-46.0999, -23.5078], [-46.1051, -23.5146], [-46.1, -23.5214], [-46.108, -23.5309], [-46.1121, -23.5408], [-46.1087, -23.5533], [-46.0945, -23.5623], [-46.088, -23.5754], [-46.0913, -23.593], [-46.0876, -23.6026], [-46.0883, -23.6132], [-46.0946, -23.6226], [-46.0884, -23.6386], [-46.0922, -23.6482], [-46.0979, -23.6522], [-46.097, -23.6675], [-46.0846, -23.6643], [-46.0817, -23.667], [-46.0822, -23.68], [-46.0932, -23.7049], [-46.1009, -23.7184]]]}, "properties": {"cod_ibge": "3506607", "nome": "Biritiba Mirim"}}, {"type": "Feature", "geometry": {"type": "Polygon", "coordinates": [[[-46.823, -23.401], [-46.8075, -23.3993], [-46.8014, -23.3956], [-46.786, -23.405], [-46.7841, -23.3997], [-46.7708, -23.3972], [-46.7702, -23.3887], [-46.7605, -23.386], [-46.7535, -23.3893], [-46.7355, -23.3881], [-46.7305, -23.3939], [-46.7217, -23.3963], [-46.7199, -23.4037], [-46.7106, -23.4065], [-46.7085, -23.4165], [-46.7004, -23.4225], [-46.6854, -23.4255], [-46.6847, -23.4193], [-46.6778, -23.4156], [-46.6698, -23.4186], [-46.6643, -23.4069], [-46.655, -23.3955], [-46.6589, -23.3902], [-46.6606, -23.3748], [-46.6677, -23.3737], [-46.6702, -23.3631], [-46.6886, -23.3683], [-46.6992, -23.3616], [-46.7065, -23.3632], [-46.716, -23.3554], [-46.7263, -23.3571], [-46.7436, -23.3533], [-46.7418, -23.3413], [-46.7521, -23.3265], [-46.7653, -23.3345], [-46.7788, -23.3378], [-46.7811, -23.349], [-46.7924, -23.3457], [-46.8115, -23.3362], [-46.8186, -23.3372], [-46.8237, -23.331], [-46.823, -23.401]]]}, "properties": {"cod_ibge": "3509007", "nome": "Caieiras"}}, {"type": "Feature", "geometry": {"type": "Polygon", "coordinates": [[[-46.9288, -23.3875], [-46.9096, -23.3958], [-46.8949, -23.4], [-46.8819, -23.3959], [-46.8673, -23.4052], [-46.8693, -23.415], [-46.8628, -23.4195], [-46.8423, -23.4212], [-46.8339, -23.4291], [-46.8233, -23.4224], [-46.8197, -23.4179], [-46.8262, -23.4089], [-46.823, -23.401], [-46.8237, -23.331], [-46.8254, -23.3245], [-46.8217, -23.3141], [-46.833, -23.3104], [-46.8408, -23.3023], [-46.8428, -23.292], [-46.8381, -23.2878], [-46.849, -23.2856], [-46.8675, -23.2779], [-46.8778, -23.2881], [-46.8861, -23.291], [-46.887, -23.2962], [-46.9019, -23.3076], [-46.9228, -23.3081], [-46.9309, -23.3117], [-46.9379, -23.3219], [-46.9385, -23.3479], [-46.9409, -23.3519], [-46.9328, -23.3633], [-46.9275, -23.3562], [-46.9173, -23.3563], [-46.9116, -23.353], [-46.9029, -23.3585], [-46.9023, -23.3664], [-46.9208, -23.3769], [-46.9319, -23.3791], [-46.9288, -23.3875]]]}, "properties": {"cod_ibge": "3509205", "nome": "Cajamar"}}, {"type": "Feature", "geometry": {"type": "Polygon", "coordinates": [[[-46.876, -23.5653], [-46.8677, -23.5759], [-46.8562, -23.5816], [-46.8478, -23.5828], [-46.8432, -23.5772], [-46.8346, -23.5767], [-46.8248, -23.5839], [-46.8173, -23.5819], [-46.8144, -23.5694], [-46.8206, -23.5588], [-46.8218, -23.5489], [-46.8178, -23.5418], [-46.8174, -23.5207], [-46.8282, -23.5172], [-46.835, -23.511], [-46.847, -23.5162], [-46.8544, -23.5166], [-46.8625, -23.5305], [-46.8606, -23.5448], [-46.8636, -23.5547], [-46.8724, -23.5543], [-46.876, -23.5653]]]}, "properties": {"cod_ibge": "3510609", "nome": "Carapicuíba"}}, {"type": "Feature", "geometry": {"type": "Polygon", "coordinates": [[[-46.8875, -23.6678], [-46.9016, -23.6693], [-46.9034, -23.6648], [-46.9145, -23.6622], [-46.9183, -23.6568], [-46.9097, -23.6442], [-46.907, -23.6328], [-46.8878, -23.6245], [-46.8798, -23.6193], [-46.8695, -23.6239], [-46.8581, -23.6124], [-46.8541, -23.6198], [-46.8368, -23.6264], [-46.8226, -23.6191], [-46.8187, -23.6134], [-46.8102, -23.6101], [-46.8078, -23.6091], [-46.8176, -23.5989], [-46.8133, -23.5935], [-46.8173, -23.5819], [-46.8248, -23.5839], [-46.8346, -23.5767], [-46.8432, -23.5772], [-46.8478, -23.5828], [-46.8562, -23.5816], [-46.8677, -23.5759], [-46.876, -23.5653], [-46.8865, -23.5694], [-46.9025, -23.5686], [-46.9111, -23.5631], [-46.9293, -23.5656], [-46.9398, -23.5709], [-46.9488, -23.5862], [-46.9568, -23.5907], [-46.9617, -23.6025], [-46.9815, -23.6022], [-46.9872, -23.6086], [-46.9893, -23.6176], [-46.9874, -23.6276], [-46.9915, -23.6479], [-46.9857, -23.6543], [-46.9882, -23.6653], [-47.0043, -23.6623], [-47.012, -23.656], [-47.0198, -23.6542], [-47.0228, -23.6449], [-47.0337, -23.6435], [-47.0435, -23.6365], [-47.0451, -23.6315], [-47.059, -23.6283], [-47.059, -23.6397], [-47.0629, -23.6446], [-47.0722, -23.6456], [-47.0815, -23.6532], [-47.0819, -23.671], [-47.0761, -23.6807], [-47.0622, -23.6825], [-47.06, -23.6993], [-47.0623, -23.709], [-47.0441, -23.7368], [-47.0344, -23.7356], [-47.0323, -23.741], [-47.0361, -23.7484], [-47.0319, -23.7695], [-47.0266, -23.7714], [-47.0193, -23.7885], [-47.0099, -23.7913], [-47.0007, -23.8016], [-46.9889, -23.8008], [-46.981, -23.7952], [-46.9822, -23.784], [-46.9681, -23.7748], [-46.966, -23.783], [-46.9585, -23.7921], [-46.9508, -23.7927], [-46.9424, -23.7868], [-46.9378, -23.7766], [-46.9358, -23.7659], [-46.9294, -23.7581], [-46.9275, -23.7498], [-46.934, -23.7387], [-46.9307, -23.7323], [-46.9097, -23.7199], [-46.9037, -23.7117], [-46.9002, -23.6993], [-46.8975, -23.6774], [-46.8875, -23.6678]]]}, "properties": {"cod_ibge": "3513009", "nome": "Cotia"}}, {"type": "Feature", "geometry": {"type": "Polygon", "coordinates": [[[-46.6513, -23.731], [-46.6404, -23.7316], [-46.6339, -23.7362], [-46.6196, -23.739], [-46.6114, -23.7374], [-46.6055, -23.7313], [-46.6049, -23.7185], [-46.5911, -23.7072], [-46.5888, -23.6985], [-46.5788, -23.69], [-46.5786, -23.6804], [-46.5824, -23.6724], [-46.5913, -23.6773], [-46.6001, -23.6708], [-46.6091, -23.6695], [-46.6163, -23.658], [-46.6264, -23.6596], [-46.6311, -23.6729], [-46.6339, -23.688], [-46.6317, -23.6964], [-46.6164, -23.7105], [-46.6276, -23.7163], [-46.6365, -23.7253], [-46.6513, -23.731]]]}, "properties": {"cod_ibge": "3513801", "nome": "Diadema"}}, {"type": "Feature", "geometry": {"type": "Polygon", "coordinates": [[[-46.8875, -23.6678], [-46.8718, -23.6831], [-46.8611, -23.6819], [-46.8493, -23.6853], [-46.8457, -23.6808], [-46.8268, -23.6758], [-46.8199, -23.6873], [-46.8015, -23.6854], [-46.7955, -23.6703], [-46.7927, -23.6472], [-46.819, -23.6363], [-46.8101, -23.6253], [-46.8102, -23.6101], [-46.8187, -23.6134], [-46.8226, -23.6191], [-46.8368, -23.6264], [-46.8541, -23.6198], [-46.8581, -23.6124], [-46.8695, -23.6239], [-46.8798, -23.6193], [-46.8878, -23.6245], [-46.907, -23.6328], [-46.9097, -23.6442], [-46.9183, -23.6568], [-46.9145, -23.6622], [-46.9034, -23.6648], [-46.9016, -23.6693], [-46.8875, -23.6678]]]}, "properties": {"cod_ibge": "3515004", "nome": "Embu das Artes"}}, {"type": "Feature", "geometry": {"type": "Polygon", "coordinates": [[[-46.8107, -23.9205], [-46.8116, -23.9078], [-46.8009, -23.8928], [-46.7877, -23.8948], [-46.7766, -23.8926], [-46.776, -23.8554], [-46.7795, -23.8514], [-46.7735, -23.8438], [-46.7643, -23.8426], [-46.7626, -23.8279], [-46.7689, -23.8214], [-46.7824, -23.8132], [-46.8011, -23.8098], [-46.7887, -23.7876], [-46.791, -23.78], [-46.7881, -23.7738], [-46.7774, -23.7672], [-46.7931, -23.7662], [-46.7997, -23.7709], [-46.8067, -23.7668], [-46.823, -23.7681], [-46.8309, -23.7793], [-46.8395, -23.7814], [-46.8494, -23.7958], [-46.8558, -23.7946], [-46.8626, -23.802], [-46.872, -23.7972], [-46.8818, -23.8038], [-46.8783, -23.811], [-46.8856, -23.8212], [-46.883, -23.8266], [-46.8875, -23.8327], [-46.886, -23.8414], [-46.8716, -23.8532], [-46.8508, -23.8538], [-46.8494, -23.8625], [-46.861, -23.8864], [-46.8825, -23.8958], [-46.8888, -23.9013], [-46.8905, -23.9171], [-46.898, -23.9273], [-46.9122, -23.9344], [-46.903, -23.9399], [-46.8932, -23.9379], [-46.8796, -23.9283], [-46.8722, -23.9355], [-46.8633, -23.9337], [-46.8588, -23.9384], [-46.8328, -23.9342], [-46.8107, -23.9205]]]}, "properties": {"cod_ibge": "3515103", "nome": "Embu-Guaçu"}}, {"type": "Feature", "geometry": {"type": "Polygon", "coordinates": [[[-46.35, -23.5735], [-46.3542, -23.5657], [-46.3529, -23.5569], [-46.3571, -23.5489], [-46.3542, -23.5435], [-46.3564, -23.5329], [-46.367, -23.5272], [-46.3664, -23.5122], [-46.3732, -23.5114], [-46.3923, -23.5305], [-46.3937, -23.5372], [-46.3882, -23.5472], [-46.3932, -23.5522], [-46.3909, -23.5597], [-46.3824, -23.563], [-46.3835, -23.5778], [-46.3776, -23.5878], [-46.3831, -23.5995], [-46.3954, -23.6022], [-46.3948, -23.6125], [-46.3839, -23.6177], [-46.3834, -23.6177], [-46.373, -23.6088], [-46.3633, -23.5852], [-46.3561, -23.5819], [-46.35, -23.5735]]]}, "properties": {"cod_ibge": "3515707", "nome": "Ferraz de Vasconcelos"}}, {"type": "Feature", "geometry": {"type": "Polygon", "coordinates": [[[-46.7837, -23.2654], [-46.7738, -23.2814], [-46.7648, -23.29], [-46.7578, -23.2928], [-46.7515, -23.3016], [-46.7178, -23.3024], [-46.7115, -23.2946], [-46.7054, -23.2959], [-46.6976, -23.2896], [-46.6887, -23.2903], [-46.6769, -23.2735], [-46.6686, -23.2701], [-46.652, -23.2675], [-46.6384, -23.2577], [-46.643, -23.2546], [-46.6525, -23.2599], [-46.6678, -23.2583], [-46.6753, -23.2615], [-46.6834, -23.2574], [-46.6942, -23.2592], [-46.7041, -23.2521], [-46.7159, -23.2536], [-46.7257, -23.2485], [-46.7302, -23.2527], [-46.7438, -23.2503], [-46.7568, -23.2534], [-46.7662, -23.2592], [-46.7788, -23.2566], [-46.7837, -23.2654]]]}, "properties": {"cod_ibge": "3516309", "nome": "Francisco Morato"}}, {"type": "Feature", "geometry": {"type": "Polygon", "coordinates": [[[-46.8237, -23.331], [-46.8186, -23.3372], [-46.8115, -23.3362], [-46.7924, -23.3457], [-46.7811, -23.349], [-46.7788, -23.3378], [-46.7653, -23.3345], [-46.7521, -23.3265], [-46.7418, -23.3413], [-46.7436, -23.3533], [-46.7263, -23.3571], [-46.716, -23.3554], [-46.7065, -23.3632], [-46.6992, -23.3616], [-46.6886, -23.3683], [-46.6702, -23.3631], [-46.6608, -23.3348], [-46.6626, -23.3245], [-46.6453, -23.3186], [-46.6454, -23.3119], [-46.6372, -23.3065], [-46.6387, -23.3003], [-46.6458, -23.2961], [-46.6475, -23.2876], [-46.659, -23.2834], [-46.6476, -23.2753], [-46.6371, -23.2581], [-46.6384, -23.2577], [-46.652, -23.2675], [-46.6686, -23.2701], [-46.6769, -23.2735], [-46.6887, -23.2903], [-46.6976, -23.2896], [-46.7054, -23.2959], [-46.7115, -23.2946], [-46.7178, -23.3024], [-46.7515, -23.3016], [-46.7578, -23.2928], [-46.7648, -23.29], [-46.7738, -23.2814], [-46.7837, -23.2654], [-46.8026, -23.2571], [-46.8035, -23.2711], [-46.8142, -23.2774], [-46.8142, -23.2821], [-46.8321, -23.2791], [-46.8381, -23.2878], [-46.8428, -23.292], [-46.8408, -23.3023], [-46.833, -23.3104], [-46.8217, -23.3141], [-46.8254, -23.3245], [-46.8237, -23.331]]]}, "properties": {"cod_ibge": "3516408", "nome": "Franco da Rocha"}}, {"type": "Feature", "geometry": {"type": "Polygon", "coordinates": [[[-46.1575, -23.3428], [-46.1531, -23.3667], [-46.1605, -23.3883], [-46.1481, -23.4019], [-46.1421, -23.4159], [-46.1551, -23.4266], [-46.1397, -23.4404], [-46.1341, -23.437], [-46.1213, -23.4355], [-46.1143, -23.4384], [-46.1067, -23.4481], [-46.1056, -23.4554], [-46.0899, -23.4518], [-46.074, -23.4524], [-46.0591, -23.465], [-46.0538, -23.4735], [-46.0538, -23.4894], [-46.0641, -23.4938], [-46.0661, -23.5069], [-46.077, -23.5147], [-46.0718, -23.5247], [-46.0763, -23.5327], [-46.0715, -23.5372], [-46.0566, -23.5422], [-46.0409, -23.5381], [-46.0344, -23.5255], [-46.0212, -23.5312], [-46.0064, -23.5278], [-45.9975, -23.5191], [-45.9927, -23.5199], [-45.9855, -23.5173], [-45.9752, -23.5035], [-45.9619, -23.4971], [-45.9572, -23.4881], [-45.9647, -23.478], [-45.9569, -23.4686], [-45.9519, -23.4514], [-45.9596, -23.4425], [-45.9653, -23.4296], [-45.9783, -23.4262], [-45.9797, -23.4184], [-45.9874, -23.4198], [-45.9912, -23.4175], [-45.9971, -23.4021], [-45.9983, -23.3914], [-46.0025, -23.3853], [-46.0105, -23.3843], [-46.0154, -23.3909], [-46.0224, -23.3877], [-46.0295, -23.3918], [-46.0413, -23.3844], [-46.0577, -23.3611], [-46.0678, -23.355], [-46.0683, -23.3483], [-46.08, -23.3415], [-46.099, -23.326], [-46.0979, -23.3195], [-46.1015, -23.3086], [-46.1127, -23.3097], [-46.1262, -23.3217], [-46.1406, -23.3289], [-46.1575, -23.3428]]]}, "properties": {"cod_ibge": "3518305", "nome": "Guararema"}}, {"type": "Feature", "geometry": {"type": "Polygon", "coordinates": [[[-46.3867, -23.4747], [-46.3923, -23.461], [-46.3938, -23.4486], [-46.3835, -23.4439], [-46.3881, -23.4378], [-46.3758, -23.4322], [-46.3663, -23.4375], [-46.3584, -23.4373], [-46.3668, -23.4301], [-46.3672, -23.4229], [-46.3776, -23.4015], [-46.3686, -23.3942], [-46.3709, -23.3842], [-46.37, -23.3651], [-46.3574, -23.3571], [-46.3472, -23.348], [-46.3399, -23.3351], [-46.3365, -23.3348], [-46.336, -23.3298], [-46.3504, -23.329], [-46.3581, -23.3171], [-46.3587, -23.3051], [-46.3554, -23.2978], [-46.3566, -23.288], [-46.3642, -23.2741], [-46.3814, -23.2781], [-46.3871, -23.2867], [-46.3964, -23.2859], [-46.4005, -23.2946], [-46.4185, -23.3163], [-46.4237, -23.3174], [-46.4309, -23.3293], [-46.4317, -23.3354], [-46.4427, -23.3407], [-46.4485, -23.3497], [-46.448, -23.3576], [-46.4683, -23.3566], [-46.4739, -23.3615], [-46.4867, -23.3581], [-46.4874, -23.3508], [-46.4959, -23.3482], [-46.511, -23.3555], [-46.5205, -23.3545], [-46.5354, -23.3633], [-46.5371, -23.3691], [-46.5452, -23.3768], [-46.5456, -23.387], [-46.5561, -23.3974], [-46.5564, -23.4096], [-46.5666, -23.4154], [-46.5657, -23.4274], [-46.5685, -23.4324], [-46.5653, -23.4415], [-46.5705, -23.4588], [-46.5617, -23.4728], [-46.5599, -23.4897], [-46.5621, -23.5], [-46.5591, -23.5071], [-46.547, -23.5064], [-46.5339, -23.4934], [-46.5111, -23.4788], [-46.4938, -23.476], [-46.48, -23.4769], [-46.4605, -23.483], [-46.4298, -23.4758], [-46.4265, -23.472], [-46.4121, -23.4705], [-46.4056, -23.4794], [-46.3966, -23.4842], [-46.3863, -23.4797], [-46.3867, -23.4747]]]}, "properties": {"cod_ibge": "3518800", "nome": "Guarulhos"}}, {"type": "Feature", "geometry": {"type": "Polygon", "coordinates": [[[-46.7774, -23.7672], [-46.7712, -23.7636], [-46.7699, -23.7529], [-46.7832, -23.7488], [-46.796, -23.7391], [-46.7985, -23.7291], [-46.7924, -23.7213], [-46.7927, -23.7005], [-46.7982, -23.6987], [-46.8015, -23.6854], [-46.8199, -23.6873], [-46.8268, -23.6758], [-46.8457, -23.6808], [-46.8493, -23.6853], [-46.8611, -23.6819], [-46.8718, -23.6831], [-46.8875, -23.6678], [-46.8975, -23.6774], [-46.9002, -23.6993], [-46.9037, -23.7117], [-46.9097, -23.7199], [-46.9307, -23.7323], [-46.934, -23.7387], [-46.9275, -23.7498], [-46.9294, -23.7581], [-46.9358, -23.7659], [-46.9378, -23.7766], [-46.9109, -23.783], [-46.8971, -23.7961], [-46.8816, -23.7899], [-46.872, -23.7972], [-46.8626, -23.802], [-46.8558, -23.7946], [-46.8494, -23.7958], [-46.8395, -23.7814], [-46.8309, -23.7793], [-46.823, -23.7681], [-46.8067, -23.7668], [-46.7997, -23.7709], [-46.7931, -23.7662], [-46.7774, -23.7672]]]}, "properties": {"cod_ibge": "3522208", "nome": "Itapecerica da Serra"}}, {"type": "Feature", "geometry": {"type": "Polygon", "coordinates": [[[-46.9111, -23.5631], [-46.9076, -23.5536], [-46.917, -23.5459], [-46.9163, -23.5363], [-46.9225, -23.523], [-46.929, -23.5235], [-46.9296, -23.5132], [-46.9455, -23.5048], [-46.9549, -23.5046], [-46.9645, -23.4987], [-46.9663, -23.5014], [-46.9855, -23.5036], [-46.995, -23.507], [-46.997, -23.522], [-46.9916, -23.5294], [-47.0126, -23.5361], [-47.0119, -23.5504], [-47.0067, -23.5549], [-47.0207, -23.5674], [-47.0281, -23.5813], [-47.0183, -23.5851], [-47.0076, -23.578], [-46.9966, -23.5809], [-47.0003, -23.5903], [-46.9882, -23.6029], [-46.9815, -23.6022], [-46.9617, -23.6025], [-46.9568, -23.5907], [-46.9488, -23.5862], [-46.9398, -23.5709], [-46.9293, -23.5656], [-46.9111, -23.5631]]]}, "properties": {"cod_ibge": "3522505", "nome": "Itapevi"}}, {"type": "Feature", "geometry": {"type": "Polygon", "coordinates": [[[-46.2881, -23.4896], [-46.2812, -23.4812], [-46.2861, -23.4662], [-46.2852, -23.459], [-46.2741, -23.4501], [-46.2706, -23.4299], [-46.2846, -23.4353], [-46.303, -23.4246], [-46.3113, -23.4232], [-46.3223, -23.4255], [-46.349, -23.42], [-46.3545, -23.4227], [-46.3584, -23.4373], [-46.3663, -23.4375], [-46.3758, -23.4322], [-46.3881, -23.4378], [-46.3835, -23.4439], [-46.3938, -23.4486], [-46.3923, -23.461], [-46.3867, -23.4747], [-46.3819, -23.4721], [-46.3769, -23.4848], [-46.3651, -23.5038], [-46.3664, -23.5122], [-46.3536, -23.5048], [-46.3508, -23.5076], [-46.3299, -23.5057], [-46.3355, -23.4956], [-46.3311, -23.4889], [-46.301, -23.4962], [-46.2881, -23.4896]]]}, "properties": {"cod_ibge": "3523107", "nome": "Itaquaquecetuba"}}, {"type": "Feature", "geometry": {"type": "Polygon", "coordinates": [[[-46.9296, -23.5132], [-46.929, -23.5235], [-46.9225, -23.523], [-46.9163, -23.5363], [-46.917, -23.5459], [-46.9076, -23.5536], [-46.9111, -23.5631], [-46.9025, -23.5686], [-46.8865, -23.5694], [-46.876, -23.5653], [-46.8724, -23.5543], [-46.8636, -23.5547], [-46.8606, -23.5448], [-46.8726, -23.5504], [-46.8864, -23.5532], [-46.8907, -23.5501], [-46.8946, -23.5385], [-46.8941, -23.5258], [-46.9032, -23.5195], [-46.9144, -23.5186], [-46.9152, -23.5125], [-46.9296, -23.5132]]]}, "properties": {"cod_ibge": "3525003", "nome": "Jandira"}}, {"type": "Feature", "geometry": {"type": "Polygon", "coordinates": [[[-47.1271, -24.0087], [-47.1227, -24.0001], [-47.1071, -23.9938], [-47.1004, -23.9972], [-47.0993, -24.0058], [-47.0924, -24.0102], [-47.0923, -24.0164], [-47.0684, -24.0254], [-47.056, -24.0096], [-47.0459, -24.0196], [-47.0462, -24.0256], [-47.0343, -24.0308], [-47.0272, -24.0516], [-47.0064, -24.0639], [-46.9978, -24.0521], [-46.9914, -24.0585], [-46.9821, -24.0595], [-46.9786, -24.0643], [-46.9647, -24.0584], [-46.9678, -24.0447], [-46.9608, -24.0459], [-46.9458, -24.0406], [-46.9362, -24.0334], [-46.9303, -24.0445], [-46.9206, -24.0415], [-46.9003, -24.0461], [-46.894, -24.0417], [-46.8903, -24.0312], [-46.8826, -24.0233], [-46.8719, -24.0239], [-46.8677, -24.0192], [-46.871, -23.9986], [-46.8814, -23.9934], [-46.8831, -23.9852], [-46.8751, -23.9793], [-46.8676, -23.9801], [-46.8623, -23.9742], [-46.8553, -23.9735], [-46.8452, -23.9627], [-46.8348, -23.9563], [-46.8238, -23.9562], [-46.8299, -23.9473], [-46.8069, -23.9382], [-46.8107, -23.9205], [-46.8328, -23.9342], [-46.8588, -23.9384], [-46.8633, -23.9337], [-46.8722, -23.9355], [-46.8796, -23.9283], [-46.8932, -23.9379], [-46.903, -23.9399], [-46.9122, -23.9344], [-46.9242, -23.9369], [-46.9397, -23.9289], [-46.9436, -23.9311], [-46.9511, -23.9216], [-46.9511, -23.9112], [-46.9566, -23.9002], [-46.9722, -23.888], [-46.983, -23.895], [-46.9909, -23.8941], [-46.9976, -23.8721], [-47.006, -23.867], [-47.0127, -23.8591], [-47.0288, -23.8462], [-47.0424, -23.8363], [-47.0496, -23.8436], [-47.0836, -23.8447], [-47.1071, -23.8485], [-47.1169, -23.8433], [-47.1182, -23.8499], [-47.1291, -23.8606], [-47.1373, -23.8862], [-47.1349, -23.8944], [-47.1424, -23.9113], [-47.1579, -23.9261], [-47.1592, -23.9346], [-47.1708, -23.9346], [-47.1843, -23.9299], [-47.189, -23.9396], [-47.1982, -23.9492], [-47.1969, -23.9587], [-47.2055, -23.9608], [-47.2053, -23.9708], [-47.1953, -23.9748], [-47.1887, -23.9904], [-47.195, -23.9923], [-47.2, -24.0006], [-47.1922, -23.9984], [-47.1878, -24.0025], [-47.1692, -24.0021], [-47.1533, -24.0062], [-47.1506, -24.0105], [-47.1378, -24.0141], [-47.1271, -24.0087]]]}, "properties": {"cod_ibge": "3526209", "nome": "Juquitiba"}}, {"type": "Feature", "geometry": {"type": "Polygon", "coordinates": [[[-46.5154, -23.2375], [-46.5284, -23.2414], [-46.5454, -23.2414], [-46.5523, -23.237], [-46.5683, -23.2337], [-46.5837, -23.2329], [-46.5899, -23.2367], [-46.6013, -23.2342], [-46.6058, -23.2277], [-46.6151, -23.2273], [-46.6222, -23.2543], [-46.6301, -23.259], [-46.6371, -23.2581], [-46.6476, -23.2753], [-46.659, -23.2834], [-46.6475, -23.2876], [-46.6458, -23.2961], [-46.6387, -23.3003], [-46.6372, -23.3065], [-46.6454, -23.3119], [-46.6453, -23.3186], [-46.6626, -23.3245], [-46.6608, -23.3348], [-46.6702, -23.3631], [-46.6677, -23.3737], [-46.6606, -23.3748], [-46.6589, -23.3902], [-46.655, -23.3955], [-46.6643, -23.4069], [-46.6698, -23.4186], [-46.6571, -23.4305], [-46.6386, -23.4273], [-46.6343, -23.4293], [-46.6143, -23.4117], [-46.6058, -23.398], [-46.5995, -23.3951], [-46.6002, -23.3882], [-46.581, -23.3769], [-46.5685, -23.3757], [-46.5552, -23.3638], [-46.5518, -23.3577], [-46.5434, -23.3575], [-46.5354, -23.3633], [-46.5205, -23.3545], [-46.511, -23.3555], [-46.4959, -23.3482], [-46.4874, -23.3508], [-46.4867, -23.3581], [-46.4739, -23.3615], [-46.4683, -23.3566], [-46.448, -23.3576], [-46.4485, -23.3497], [-46.4427, -23.3407], [-46.4317, -23.3354], [-46.4309, -23.3293], [-46.4237, -23.3174], [-46.4185, -23.3163], [-46.4259, -23.3017], [-46.4296, -23.2893], [-46.4404, -23.2731], [-46.4484, -23.2701], [-46.4698, -23.2828], [-46.4792, -23.2688], [-46.4905, -23.2578], [-46.5043, -23.2487], [-46.5109, -23.2502], [-46.5154, -23.2375]]]}, "properties": {"cod_ibge": "3528502", "nome": "Mairiporã"}}, {"type": "Feature", "geometry": {"type": "Polygon", "coordinates": [[[-46.475, -23.7183], [-46.4613, -23.7069], [-46.4515, -23.7038], [-46.4431, -23.6968], [-46.4353, -23.6852], [-46.426, -23.6776], [-46.4118, -23.6817], [-46.3926, -23.669], [-46.399, -23.6535], [-46.4, -23.6447], [-46.3944, -23.6371], [-46.392, -23.6265], [-46.3839, -23.6177], [-46.3948, -23.6125], [-46.3982, -23.619], [-46.408, -23.6269], [-46.4068, -23.6318], [-46.4211, -23.6437], [-46.4315, -23.6411], [-46.4431, -23.6439], [-46.4723, -23.6388], [-46.4772, -23.6262], [-46.4855, -23.623], [-46.4828, -23.63], [-46.4863, -23.6401], [-46.4824, -23.6495], [-46.4922, -23.6511], [-46.4958, -23.6561], [-46.481, -23.6737], [-46.4803, -23.6805], [-46.4895, -23.6952], [-46.4917, -23.709], [-46.4838, -23.7112], [-46.475, -23.7183]]]}, "properties": {"cod_ibge": "3529401", "nome": "Mauá"}}, {"type": "Feature", "geometry": {"type": "Polygon", "coordinates": [[[-46.1575, -23.3428], [-46.1629, -23.3459], [-46.1674, -23.3578], [-46.1799, -23.3565], [-46.2023, -23.3678], [-46.2181, -23.3813], [-46.227, -23.3836], [-46.2318, -23.3906], [-46.241, -23.3924], [-46.2407, -23.4002], [-46.2477, -23.4056], [-46.2498, -23.4153], [-46.2555, -23.4178], [-46.2604, -23.4265], [-46.2706, -23.4299], [-46.2741, -23.4501], [-46.2852, -23.459], [-46.2861, -23.4662], [-46.2812, -23.4812], [-46.2881, -23.4896], [-46.2741, -23.4853], [-46.2652, -23.4885], [-46.2646, -23.4986], [-46.2692, -23.5049], [-46.2661, -23.5197], [-46.2622, -23.5242], [-46.2716, -23.545], [-46.2783, -23.545], [-46.2791, -23.5535], [-46.285, -23.566], [-46.2777, -23.5808], [-46.2681, -23.5922], [-46.2636, -23.6091], [-46.2591, -23.6117], [-46.2646, -23.6289], [-46.2591, -23.6354], [-46.2544, -23.6503], [-46.2587, -23.6599], [-46.2582, -23.6701], [-46.2656, -23.6787], [-46.2668, -23.6857], [-46.2778, -23.6909], [-46.2979, -23.7049], [-46.2952, -23.7109], [-46.2973, -23.7234], [-46.3127, -23.7406], [-46.3219, -23.7444], [-46.3156, -23.7445], [-46.3027, -23.751], [-46.2967, -23.7487], [-46.2883, -23.7546], [-46.2831, -23.7673], [-46.2784, -23.7703], [-46.2701, -23.7658], [-46.2603, -23.7679], [-46.2554, -23.7598], [-46.2489, -23.7569], [-46.2478, -23.7462], [-46.2396, -23.7359], [-46.2261, -23.7375], [-46.2177, -23.7441], [-46.2086, -23.7434], [-46.2024, -23.7513], [-46.1949, -23.7542], [-46.1864, -23.7447], [-46.1705, -23.7324], [-46.1602, -23.7319], [-46.1557, -23.7362], [-46.148, -23.7284], [-46.1315, -23.7246], [-46.1254, -23.7132], [-46.1137, -23.7177], [-46.1066, -23.7117], [-46.1009, -23.7184], [-46.0932, -23.7049], [-46.0822, -23.68], [-46.0817, -23.667], [-46.0846, -23.6643], [-46.097, -23.6675], [-46.0979, -23.6522], [-46.0922, -23.6482], [-46.0884, -23.6386], [-46.0946, -23.6226], [-46.0883, -23.6132], [-46.0876, -23.6026], [-46.0913, -23.593], [-46.088, -23.5754], [-46.0945, -23.5623], [-46.1087, -23.5533], [-46.1121, -23.5408], [-46.108, -23.5309], [-46.1, -23.5214], [-46.1051, -23.5146], [-46.0999, -23.5078], [-46.0899, -23.5081], [-46.077, -23.5147], [-46.0661, -23.5069], [-46.0641, -23.4938], [-46.0538, -23.4894], [-46.0538, -23.4735], [-46.0591, -23.465], [-46.074, -23.4524], [-46.0899, -23.4518], [-46.1056, -23.4554], [-46.1067, -23.4481], [-46.1143, -23.4384], [-46.1213, -23.4355], [-46.1341, -23.437], [-46.1397, -23.4404], [-46.1551, -23.4266], [-46.1421, -23.4159], [-46.1481, -23.4019], [-46.1605, -23.3883], [-46.1531, -23.3667], [-46.1575, -23.3428]]]}, "properties": {"cod_ibge": "3530607", "nome": "Mogi das Cruzes"}}, {"type": "Feature", "geometry": {"type": "Polygon", "coordinates": [[[-46.8078, -23.6091], [-46.8089, -23.5984], [-46.8064, -23.584], [-46.7952, -23.5825], [-46.786, -23.5745], [-46.7731, -23.5701], [-46.7602, -23.555], [-46.76, -23.5292], [-46.7485, -23.5237], [-46.764, -23.5064], [-46.756, -23.495], [-46.7663, -23.4913], [-46.7698, -23.4768], [-46.7751, -23.4718], [-46.7748, -23.4644], [-46.787, -23.4657], [-46.796, -23.4629], [-46.7995, -23.4714], [-46.8069, -23.4931], [-46.8118, -23.498], [-46.8085, -23.51], [-46.8174, -23.5207], [-46.8178, -23.5418], [-46.8218, -23.5489], [-46.8206, -23.5588], [-46.8144, -23.5694], [-46.8173, -23.5819], [-46.8133, -23.5935], [-46.8176, -23.5989], [-46.8078, -23.6091]]]}, "properties": {"cod_ibge": "3534401", "nome": "Osasco"}}, {"type": "Feature", "geometry": {"type": "Polygon", "coordinates": [[[-47.0375, -23.4356], [-47.0236, -23.4324], [-47.01, -23.4328], [-46.9961, -23.4295], [-46.9848, -23.4328], [-46.9709, -23.4255], [-46.9656, -23.4123], [-46.9512, -23.409], [-46.9453, -23.4029], [-46.9498, -23.3926], [-46.9288, -23.3875], [-46.9319, -23.3791], [-46.9208, -23.3769], [-46.9023, -23.3664], [-46.9029, -23.3585], [-46.9116, -23.353], [-46.9173, -23.3563], [-46.9275, -23.3562], [-46.9328, -23.3633], [-46.9409, -23.3519], [-46.9385, -23.3479], [-46.9379, -23.3219], [-46.9591, -23.3268], [-46.9633, -23.3238], [-46.9837, -23.3336], [-46.9918, -23.3339], [-47.0154, -23.3403], [-47.0187, -23.3454], [-47.0306, -23.346], [-47.0429, -23.3523], [-47.0393, -23.3672], [-47.0306, -23.3717], [-47.0427, -23.3876], [-47.0361, -23.3991], [-47.0407, -23.4238], [-47.0364, -23.4259], [-47.0375, -23.4356]]]}, "properties": {"cod_ibge": "3539103", "nome": "Pirapora do Bom Jesus"}}, {"type": "Feature", "geometry": {"type": "Polygon", "coordinates": [[[-46.3299, -23.5057], [-46.3508, -23.5076], [-46.3536, -23.5048], [-46.3664, -23.5122], [-46.367, -23.5272], [-46.3564, -23.5329], [-46.3542, -23.5435], [-46.3571, -23.5489], [-46.3529, -23.5569], [-46.3542, -23.5657], [-46.35, -23.5735], [-46.3423, -23.5607], [-46.3413, -23.5471], [-46.3315, -23.539], [-46.3299, -23.5202], [-46.3259, -23.5128], [-46.3299, -23.5057]]]}, "properties": {"cod_ibge": "3539806", "nome": "Poá"}}, {"type": "Feature", "geometry": {"type": "Polygon", "coordinates": [[[-46.3307, -23.7089], [-46.3317, -23.6966], [-46.3373, -23.6877], [-46.3385, -23.6779], [-46.3583, -23.6605], [-46.3536, -23.6489], [-46.3569, -23.6385], [-46.372, -23.6442], [-46.3783, -23.6361], [-46.3834, -23.6177], [-46.3839, -23.6177], [-46.392, -23.6265], [-46.3944, -23.6371], [-46.4, -23.6447], [-46.399, -23.6535], [-46.3926, -23.669], [-46.4118, -23.6817], [-46.426, -23.6776], [-46.4353, -23.6852], [-46.4431, -23.6968], [-46.4515, -23.7038], [-46.4613, -23.7069], [-46.475, -23.7183], [-46.4689, -23.7261], [-46.4711, -23.7393], [-46.4578, -23.7507], [-46.458, -23.7638], [-46.4501, -23.7707], [-46.4397, -23.7661], [-46.4289, -23.7657], [-46.4182, -23.7569], [-46.4208, -23.7509], [-46.4115, -23.7329], [-46.401, -23.7302], [-46.3986, -23.7227], [-46.384, -23.7224], [-46.3858, -23.7119], [-46.3813, -23.7081], [-46.3681, -23.7102], [-46.3498, -23.7169], [-46.3307, -23.7089]]]}, "properties": {"cod_ibge": "3543303", "nome": "Ribeirão Pires"}}, {"type": "Feature", "geometry": {"type": "Polygon", "coordinates": [[[-46.4289, -23.7657], [-46.4243, -23.7722], [-46.4073, -23.7698], [-46.3874, -23.764], [-46.3732, -23.7529], [-46.3649, -23.753], [-46.3587, -23.7468], [-46.3545, -23.7372], [-46.3435, -23.7353], [-46.3355, -23.7256], [-46.3281, -23.7284], [-46.3273, -23.7142], [-46.3307, -23.7089], [-46.3498, -23.7169], [-46.3681, -23.7102], [-46.3813, -23.7081], [-46.3858, -23.7119], [-46.384, -23.7224], [-46.3986, -23.7227], [-46.401, -23.7302], [-46.4115, -23.7329], [-46.4208, -23.7509], [-46.4182, -23.7569], [-46.4289, -23.7657]]]}, "properties": {"cod_ibge": "3544103", "nome": "Rio Grande da Serra"}}, {"type": "Feature", "geometry": {"type": "Polygon", "coordinates": [[[-45.9927, -23.5199], [-45.9853, -23.5252], [-45.9804, -23.5417], [-45.9698, -23.5389], [-45.9651, -23.5536], [-45.9652, -23.5808], [-45.945, -23.5816], [-45.9357, -23.5862], [-45.9293, -23.5985], [-45.9303, -23.6091], [-45.934, -23.6135], [-45.9596, -23.634], [-45.9474, -23.6357], [-45.9394, -23.6323], [-45.9284, -23.6375], [-45.9355, -23.6429], [-45.9333, -23.6523], [-45.921, -23.6593], [-45.9161, -23.6669], [-45.8946, -23.6553], [-45.8836, -23.6535], [-45.8721, -23.6548], [-45.862, -23.6523], [-45.8547, -23.6467], [-45.8448, -23.6438], [-45.8334, -23.6487], [-45.831, -23.6626], [-45.8329, -23.6698], [-45.8233, -23.6762], [-45.7982, -23.6754], [-45.7961, -23.683], [-45.7773, -23.6829], [-45.7626, -23.6707], [-45.7535, -23.6713], [-45.7417, -23.6682], [-45.7337, -23.6564], [-45.7196, -23.6489], [-45.7025, -23.6369], [-45.6953, -23.6315], [-45.6968, -23.6222], [-45.7035, -23.6112], [-45.7058, -23.6017], [-45.7149, -23.6087], [-45.721, -23.6067], [-45.7256, -23.5985], [-45.7334, -23.6032], [-45.7438, -23.6021], [-45.7339, -23.5924], [-45.7396, -23.5833], [-45.7309, -23.5745], [-45.7415, -23.5722], [-45.7458, -23.5667], [-45.7413, -23.561], [-45.747, -23.5549], [-45.7465, -23.5389], [-45.754, -23.532], [-45.7546, -23.5257], [-45.7619, -23.5185], [-45.7595, -23.5115], [-45.7723, -23.5072], [-45.7834, -23.51], [-45.7911, -23.5063], [-45.7888, -23.4929], [-45.7952, -23.4912], [-45.8136, -23.4993], [-45.8169, -23.4915], [-45.8356, -23.4826], [-45.8406, -23.4723], [-45.8529, -23.481], [-45.8646, -23.4829], [-45.8827, -23.4954], [-45.8971, -23.4976], [-45.9041, -23.5053], [-45.9181, -23.5053], [-45.9215, -23.5005], [-45.9394, -23.4944], [-45.9497, -23.5005], [-45.9619, -23.4971], [-45.9752, -23.5035], [-45.9855, -23.5173], [-45.9927, -23.5199]]]}, "properties": {"cod_ibge": "3545001", "nome": "Salesópolis"}}, {"type": "Feature", "geometry": {"type": "Polygon", "coordinates": [[[-46.1575, -23.3428], [-46.1406, -23.3289], [-46.1262, -23.3217], [-46.1127, -23.3097], [-46.1015, -23.3086], [-46.1029, -23.3029], [-46.1138, -23.2993], [-46.1127, -23.2886], [-46.1192, -23.2854], [-46.1349, -23.2879], [-46.1451, -23.2738], [-46.152, -23.2724], [-46.1507, -23.2619], [-46.1457, -23.2568], [-46.1564, -23.2554], [-46.1574, -23.2419], [-46.1621, -23.2346], [-46.1964, -23.218], [-46.1958, -23.2106], [-46.2054, -23.209], [-46.2274, -23.1898], [-46.2447, -23.1859], [-46.2504, -23.189], [-46.2622, -23.1864], [-46.2693, -23.1903], [-46.2758, -23.1849], [-46.2836, -23.1842], [-46.2856, -23.1907], [-46.3016, -23.1983], [-46.31, -23.205], [-46.3055, -23.213], [-46.3113, -23.2271], [-46.3369, -23.2505], [-46.3475, -23.2522], [-46.3539, -23.265], [-46.3642, -23.2741], [-46.3566, -23.288], [-46.3554, -23.2978], [-46.3587, -23.3051], [-46.3581, -23.3171], [-46.3504, -23.329], [-46.336, -23.3298], [-46.3365, -23.3348], [-46.3345, -23.332], [-46.3054, -23.3215], [-46.2992, -23.3245], [-46.2945, -23.3335], [-46.2917, -23.346], [-46.2943, -23.3694], [-46.2747, -23.3885], [-46.261, -23.3997], [-46.2562, -23.4062], [-46.2477, -23.4056], [-46.2407, -23.4002], [-46.241, -23.3924], [-46.2318, -23.3906], [-46.227, -23.3836], [-46.2181, -23.3813], [-46.2023, -23.3678], [-46.1799, -23.3565], [-46.1674, -23.3578], [-46.1629, -23.3459], [-46.1575, -23.3428]]]}, "properties": {"cod_ibge": "3546801", "nome": "Santa Isabel"}}, {"type": "Feature", "geometry": {"type": "Polygon", "coordinates": [[[-46.8233, -23.4224], [-46.8339, -23.4291], [-46.8423, -23.4212], [-46.8628, -23.4195], [-46.8693, -23.415], [-46.8673, -23.4052], [-46.8819, -23.3959], [-46.8949, -23.4], [-46.9096, -23.3958], [-46.9288, -23.3875], [-46.9498, -23.3926], [-46.9453, -23.4029], [-46.9512, -23.409], [-46.9656, -23.4123], [-46.9709, -23.4255], [-46.9848, -23.4328], [-46.9961, -23.4295], [-47.01, -23.4328], [-47.0236, -23.4324], [-47.0375, -23.4356], [-47.0293, -23.4425], [-47.0107, -23.4464], [-47.014, -23.4578], [-47.0129, -23.4678], [-47.0172, -23.4731], [-47.0089, -23.4947], [-47.0009, -23.5057], [-46.995, -23.507], [-46.9855, -23.5036], [-46.9663, -23.5014], [-46.9645, -23.4987], [-46.9533, -23.4838], [-46.9366, -23.4878], [-46.9197, -23.4871], [-46.9126, -23.4913], [-46.899, -23.4911], [-46.8887, -23.4841], [-46.8884, -23.4747], [-46.8807, -23.4722], [-46.8776, -23.4801], [-46.8697, -23.4774], [-46.8616, -23.4829], [-46.8487, -23.4809], [-46.8353, -23.4846], [-46.8209, -23.4805], [-46.8149, -23.4856], [-46.8082, -23.4846], [-46.8064, -23.4759], [-46.8007, -23.4704], [-46.8054, -23.4625], [-46.8115, -23.4369], [-46.8233, -23.4224]]]}, "properties": {"cod_ibge": "3547304", "nome": "Santana de Parnaíba"}}, {"type": "Feature", "geometry": {"type": "Polygon", "coordinates": [[[-46.5672, -23.6502], [-46.5536, -23.6664], [-46.5546, -23.6809], [-46.5395, -23.6875], [-46.5369, -23.6963], [-46.5291, -23.7034], [-46.5168, -23.7054], [-46.5219, -23.7147], [-46.5174, -23.7203], [-46.5203, -23.7353], [-46.5117, -23.7477], [-46.5065, -23.7433], [-46.4965, -23.7478], [-46.4736, -23.7731], [-46.4644, -23.7792], [-46.4554, -23.7905], [-46.4418, -23.8], [-46.4306, -23.8013], [-46.4327, -23.8081], [-46.4263, -23.8129], [-46.4103, -23.8154], [-46.4024, -23.8118], [-46.3836, -23.8097], [-46.3733, -23.7955], [-46.3677, -23.7925], [-46.3544, -23.7915], [-46.3386, -23.7817], [-46.3318, -23.7813], [-46.3202, -23.7855], [-46.3203, -23.8031], [-46.3026, -23.7879], [-46.2938, -23.7837], [-46.2784, -23.7703], [-46.2831, -23.7673], [-46.2883, -23.7546], [-46.2967, -23.7487], [-46.3027, -23.751], [-46.3156, -23.7445], [-46.3219, -23.7444], [-46.3168, -23.7392], [-46.3281, -23.7284], [-46.3355, -23.7256], [-46.3435, -23.7353], [-46.3545, -23.7372], [-46.3587, -23.7468], [-46.3649, -23.753], [-46.3732, -23.7529], [-46.3874, -23.764], [-46.4073, -23.7698], [-46.4243, -23.7722], [-46.4289, -23.7657], [-46.4397, -23.7661], [-46.4501, -23.7707], [-46.458, -23.7638], [-46.4578, -23.7507], [-46.4711, -23.7393], [-46.4689, -23.7261], [-46.475, -23.7183], [-46.4838, -23.7112], [-46.4917, -23.709], [-46.4895, -23.6952], [-46.4803, -23.6805], [-46.481, -23.6737], [-46.4958, -23.6561], [-46.4922, -23.6511], [-46.4824, -23.6495], [-46.4863, -23.6401], [-46.4828, -23.63], [-46.4855, -23.623], [-46.5062, -23.6258], [-46.5214, -23.614], [-46.5345, -23.6144], [-46.548, -23.6061], [-46.545, -23.6246], [-46.5492, -23.6292], [-46.5517, -23.6425], [-46.5606, -23.6437], [-46.5672, -23.6502]]]}, "properties": {"cod_ibge": "3547809", "nome": "Santo André"}}, {"type": "Feature", "geometry": {"type": "Polygon", "coordinates": [[[-46.6513, -23.731], [-46.6455, -23.7572], [-46.6251, -23.7816], [-46.6228, -23.7862], [-46.6244, -23.8188], [-46.6338, -23.8295], [-46.6351, -23.8385], [-46.6326, -23.8511], [-46.6169, -23.862], [-46.6156, -23.8763], [-46.618, -23.8852], [-46.6116, -23.9107], [-46.6071, -23.9448], [-46.6066, -23.9573], [-46.6119, -23.9678], [-46.5853, -23.9608], [-46.5802, -23.9558], [-46.5645, -23.9529], [-46.5566, -23.9417], [-46.5405, -23.9235], [-46.5209, -23.9118], [-46.5201, -23.9055], [-46.5031, -23.9045], [-46.4962, -23.8996], [-46.4884, -23.8854], [-46.4599, -23.8661], [-46.455, -23.8546], [-46.4435, -23.8502], [-46.438, -23.8422], [-46.4412, -23.8349], [-46.4369, -23.8254], [-46.4263, -23.8251], [-46.4103, -23.8154], [-46.4263, -23.8129], [-46.4327, -23.8081], [-46.4306, -23.8013], [-46.4418, -23.8], [-46.4554, -23.7905], [-46.4644, -23.7792], [-46.4736, -23.7731], [-46.4965, -23.7478], [-46.5065, -23.7433], [-46.5117, -23.7477], [-46.5203, -23.7353], [-46.5174, -23.7203], [-46.5219, -23.7147], [-46.5168, -23.7054], [-46.5291, -23.7034], [-46.5369, -23.6963], [-46.5395, -23.6875], [-46.5546, -23.6809], [-46.5536, -23.6664], [-46.5672, -23.6502], [-46.5746, -23.65], [-46.5834, -23.641], [-46.59, -23.6489], [-46.6144, -23.6603], [-46.6163, -23.658], [-46.6091, -23.6695], [-46.6001, -23.6708], [-46.5913, -23.6773], [-46.5824, -23.6724], [-46.5786, -23.6804], [-46.5788, -23.69], [-46.5888, -23.6985], [-46.5911, -23.7072], [-46.6049, -23.7185], [-46.6055, -23.7313], [-46.6114, -23.7374], [-46.6196, -23.739], [-46.6339, -23.7362], [-46.6404, -23.7316], [-46.6513, -23.731]]]}, "properties": {"cod_ibge": "3548708", "nome": "São Bernardo do Campo"}}, {"type": "Feature", "geometry": {"type": "Polygon", "coordinates": [[[-46.548, -23.6061], [-46.558, -23.6118], [-46.5748, -23.6011], [-46.5793, -23.6045], [-46.5849, -23.6353], [-46.5834, -23.641], [-46.5746, -23.65], [-46.5672, -23.6502], [-46.5606, -23.6437], [-46.5517, -23.6425], [-46.5492, -23.6292], [-46.545, -23.6246], [-46.548, -23.6061]]]}, "properties": {"cod_ibge": "3548807", "nome": "São Caetano do Sul"}}, {"type": "Feature", "geometry": {"type": "Polygon", "coordinates": [[[-47.0288, -23.8462], [-47.0127, -23.8591], [-47.006, -23.867], [-46.9976, -23.8721], [-46.9909, -23.8941], [-46.983, -23.895], [-46.9722, -23.888], [-46.9566, -23.9002], [-46.9511, -23.9112], [-46.9511, -23.9216], [-46.9436, -23.9311], [-46.9397, -23.9289], [-46.9242, -23.9369], [-46.9122, -23.9344], [-46.898, -23.9273], [-46.8905, -23.9171], [-46.8888, -23.9013], [-46.8825, -23.8958], [-46.861, -23.8864], [-46.8494, -23.8625], [-46.8508, -23.8538], [-46.8716, -23.8532], [-46.886, -23.8414], [-46.8875, -23.8327], [-46.883, -23.8266], [-46.8856, -23.8212], [-46.8783, -23.811], [-46.8818, -23.8038], [-46.872, -23.7972], [-46.8816, -23.7899], [-46.8971, -23.7961], [-46.9109, -23.783], [-46.9378, -23.7766], [-46.9424, -23.7868], [-46.9508, -23.7927], [-46.9585, -23.7921], [-46.966, -23.783], [-46.9681, -23.7748], [-46.9822, -23.784], [-46.981, -23.7952], [-46.9889, -23.8008], [-46.9865, -23.8084], [-47.0174, -23.8176], [-47.0132, -23.825], [-47.0168, -23.8361], [-47.0288, -23.8462]]]}, "properties": {"cod_ibge": "3549953", "nome": "São Lourenço da Serra"}}, {"type": "Feature", "geometry": {"type": "Polygon", "coordinates": [[[-46.6119, -23.9678], [-46.6066, -23.9573], [-46.6071, -23.9448], [-46.6116, -23.9107], [-46.618, -23.8852], [-46.6156, -23.8763], [-46.6169, -23.862], [-46.6326, -23.8511], [-46.6351, -23.8385], [-46.6338, -23.8295], [-46.6244, -23.8188], [-46.6228, -23.7862], [-46.6251, -23.7816], [-46.6455, -23.7572], [-46.6513, -23.731], [-46.6365, -23.7253], [-46.6276, -23.7163], [-46.6164, -23.7105], [-46.6317, -23.6964], [-46.6339, -23.688], [-46.6311, -23.6729], [-46.6264, -23.6596], [-46.6163, -23.658], [-46.6144, -23.6603], [-46.59, -23.6489], [-46.5834, -23.641], [-46.5849, -23.6353], [-46.5793, -23.6045], [-46.5748, -23.6011], [-46.558, -23.6118], [-46.548, -23.6061], [-46.5345, -23.6144], [-46.5214, -23.614], [-46.5062, -23.6258], [-46.4855, -23.623], [-46.4772, -23.6262], [-46.4723, -23.6388], [-46.4431, -23.6439], [-46.4315, -23.6411], [-46.4211, -23.6437], [-46.4068, -23.6318], [-46.408, -23.6269], [-46.3982, -23.619], [-46.3948, -23.6125], [-46.3954, -23.6022], [-46.3831, -23.5995], [-46.3776, -23.5878], [-46.3835, -23.5778], [-46.3824, -23.563], [-46.3909, -23.5597], [-46.3932, -23.5522], [-46.3882, -23.5472], [-46.3937, -23.5372], [-46.3923, -23.5305], [-46.3732, -23.5114], [-46.3664, -23.5122], [-46.3651, -23.5038], [-46.3769, -23.4848], [-46.3819, -23.4721], [-46.3867, -23.4747], [-46.3863, -23.4797], [-46.3966, -23.4842], [-46.4056, -23.4794], [-46.4121, -23.4705], [-46.4265, -23.472], [-46.4298, -23.4758], [-46.4605, -23.483], [-46.48, -23.4769], [-46.4938, -23.476], [-46.5111, -23.4788], [-46.5339, -23.4934], [-46.547, -23.5064], [-46.5591, -23.5071], [-46.5621, -23.5], [-46.5599, -23.4897], [-46.5617, -23.4728], [-46.5705, -23.4588], [-46.5653, -23.4415], [-46.5685, -23.4324], [-46.5657, -23.4274], [-46.5666, -23.4154], [-46.5564, -23.4096], [-46.5561, -23.3974], [-46.5456, -23.387], [-46.5452, -23.3768], [-46.5371, -23.3691], [-46.5354, -23.3633], [-46.5434, -23.3575], [-46.5518, -23.3577], [-46.5552, -23.3638], [-46.5685, -23.3757], [-46.581, -23.3769], [-46.6002, -23.3882], [-46.5995, -23.3951], [-46.6058, -23.398], [-46.6143, -23.4117], [-46.6343, -23.4293], [-46.6386, -23.4273], [-46.6571, -23.4305], [-46.6698, -23.4186], [-46.6778, -23.4156], [-46.6847, -23.4193], [-46.6854, -23.4255], [-46.7004, -23.4225], [-46.7085, -23.4165], [-46.7106, -23.4065], [-46.7199, -23.4037], [-46.7217, -23.3963], [-46.7305, -23.3939], [-46.7355, -23.3881], [-46.7535, -23.3893], [-46.7605, -23.386], [-46.7702, -23.3887], [-46.7708, -23.3972], [-46.7841, -23.3997], [-46.786, -23.405], [-46.8014, -23.3956], [-46.8075, -23.3993], [-46.823, -23.401], [-46.8262, -23.4089], [-46.8197, -23.4179], [-46.8233, -23.4224], [-46.8115, -23.4369], [-46.8054, -23.4625], [-46.8007, -23.4704], [-46.7995, -23.4714], [-46.796, -23.4629], [-46.787, -23.4657], [-46.7748, -23.4644], [-46.7751, -23.4718], [-46.7698, -23.4768], [-46.7663, -23.4913], [-46.756, -23.495], [-46.764, -23.5064], [-46.7485, -23.5237], [-46.76, -23.5292], [-46.7602, -23.555], [-46.7731, -23.5701], [-46.786, -23.5745], [-46.7952, -23.5825], [-46.8064, -23.584], [-46.8089, -23.5984], [-46.8078, -23.6091], [-46.789, -23.6064], [-46.7632, -23.598], [-46.7508, -23.6028], [-46.7525, -23.6105], [-46.7603, -23.6149], [-46.7691, -23.6271], [-46.7765, -23.631], [-46.7927, -23.6472], [-46.7955, -23.6703], [-46.8015, -23.6854], [-46.7982, -23.6987], [-46.7927, -23.7005], [-46.7924, -23.7213], [-46.7985, -23.7291], [-46.796, -23.7391], [-46.7832, -23.7488], [-46.7699, -23.7529], [-46.7712, -23.7636], [-46.7774, -23.7672], [-46.7881, -23.7738], [-46.791, -23.78], [-46.7887, -23.7876], [-46.8011, -23.8098], [-46.7824, -23.8132], [-46.7689, -23.8214], [-46.7626, -23.8279], [-46.7643, -23.8426], [-46.7735, -23.8438], [-46.7795, -23.8514], [-46.776, -23.8554], [-46.7766, -23.8926], [-46.7877, -23.8948], [-46.8009, -23.8928], [-46.8116, -23.9078], [-46.8107, -23.9205], [-46.8069, -23.9382], [-46.7945, -23.9426], [-46.7856, -23.9423], [-46.7751, -23.9564], [-46.7549, -23.9754], [-46.7664, -23.9917], [-46.772, -24.0077], [-46.7627, -24.006], [-46.755, -23.9968], [-46.7427, -23.9919], [-46.7303, -23.9955], [-46.721, -23.993], [-46.7148, -23.9962], [-46.7081, -23.991], [-46.6993, -23.9903], [-46.6921, -23.9844], [-46.6833, -23.9824], [-46.6754, -23.9894], [-46.6618, -23.9882], [-46.6499, -24.0016], [-46.6404, -23.9978], [-46.6331, -23.988], [-46.6357, -23.9773], [-46.618, -23.9678], [-46.6119, -23.9678]]]}, "properties": {"cod_ibge": "3550308", "nome": "São Paulo"}}, {"type": "Feature", "geometry": {"type": "Polygon", "coordinates": [[[-46.3219, -23.7444], [-46.3127, -23.7406], [-46.2973, -23.7234], [-46.2952, -23.7109], [-46.2979, -23.7049], [-46.2778, -23.6909], [-46.2668, -23.6857], [-46.2656, -23.6787], [-46.2582, -23.6701], [-46.2587, -23.6599], [-46.2544, -23.6503], [-46.2591, -23.6354], [-46.2646, -23.6289], [-46.2591, -23.6117], [-46.2636, -23.6091], [-46.2681, -23.5922], [-46.2777, -23.5808], [-46.285, -23.566], [-46.2791, -23.5535], [-46.2783, -23.545], [-46.2716, -23.545], [-46.2622, -23.5242], [-46.2661, -23.5197], [-46.2692, -23.5049], [-46.2646, -23.4986], [-46.2652, -23.4885], [-46.2741, -23.4853], [-46.2881, -23.4896], [-46.301, -23.4962], [-46.3311, -23.4889], [-46.3355, -23.4956], [-46.3299, -23.5057], [-46.3259, -23.5128], [-46.3299, -23.5202], [-46.3315, -23.539], [-46.3413, -23.5471], [-46.3423, -23.5607], [-46.35, -23.5735], [-46.3561, -23.5819], [-46.3633, -23.5852], [-46.373, -23.6088], [-46.3834, -23.6177], [-46.3783, -23.6361], [-46.372, -23.6442], [-46.3569, -23.6385], [-46.3536, -23.6489], [-46.3583, -23.6605], [-46.3385, -23.6779], [-46.3373, -23.6877], [-46.3317, -23.6966], [-46.3307, -23.7089], [-46.3273, -23.7142], [-46.3281, -23.7284], [-46.3168, -23.7392], [-46.3219, -23.7444]]]}, "properties": {"cod_ibge": "3552502", "nome": "Suzano"}}, {"type": "Feature", "geometry": {"type": "Polygon", "coordinates": [[[-46.7927, -23.6472], [-46.7765, -23.631], [-46.7691, -23.6271], [-46.7603, -23.6149], [-46.7525, -23.6105], [-46.7508, -23.6028], [-46.7632, -23.598], [-46.789, -23.6064], [-46.8078, -23.6091], [-46.8102, -23.6101], [-46.8101, -23.6253], [-46.819, -23.6363], [-46.7927, -23.6472]]]}, "properties": {"cod_ibge": "3552809", "nome": "Taboão da Serra"}}, {"type": "Feature", "geometry": {"type": "Polygon", "coordinates": [[[-47.059, -23.6283], [-47.0451, -23.6315], [-47.0435, -23.6365], [-47.0337, -23.6435], [-47.0228, -23.6449], [-47.0198, -23.6542], [-47.012, -23.656], [-47.0043, -23.6623], [-46.9882, -23.6653], [-46.9857, -23.6543], [-46.9915, -23.6479], [-46.9874, -23.6276], [-46.9893, -23.6176], [-46.9872, -23.6086], [-46.9815, -23.6022], [-46.9882, -23.6029], [-47.0003, -23.5903], [-46.9966, -23.5809], [-47.0076, -23.578], [-47.0183, -23.5851], [-47.0281, -23.5813], [-47.0364, -23.6012], [-47.0477, -23.6174], [-47.0562, -23.6187], [-47.059, -23.6283]]]}, "properties": {"cod_ibge": "3556453", "nome": "Vargem Grande Paulista"}}]}